{"type": "FeatureCollection", "features": [ {"type": "Feature", "properties": {"norad_id": 34833, "name": "IRIDIUM 33 DEB", "group": "iridium-33-debris", "lat": -28.969218906843068, "lon": 46.76856795887891, "alt_km": 729.291432526441, "timestamp": "2025-12-17T21:39:46.075167+00:00", "meta": {"OBJECT_NAME": "IRIDIUM 33 DEB", "OBJECT_ID": "1997-051MH", "EPOCH": "2025-12-15T10:20:22.808256", "MEAN_MOTION": 14.52396502, "ECCENTRICITY": 0.00217393, "INCLINATION": 86.3936, "RA_OF_ASC_NODE": 49.8343, "ARG_OF_PERICENTER": 90.4638, "MEAN_ANOMALY": 284.9984, "EPHEMERIS_TYPE": 0, "CLASSIFICATION_TYPE": "U", "NORAD_CAT_ID": 34833, "ELEMENT_SET_NO": 999, "REV_AT_EPOCH": 87754, "BSTAR": 0.00054738094, "MEAN_MOTION_DOT": 2.256e-05, "MEAN_MOTION_DDOT": 0}, "tle": {"line1": "1 34833U 97051MH  25349.43081954  .00002256  00000+0  54738-3 0  9994", "line2": "2 34833  86.3936  49.8343 0021739  90.4638 284.9984 14.52396502877543"}}, "geometry": {"type": "Point", "coordinates": [46.76856795887891, -28.969218906843068]}}, {"type": "Feature", "properties": {"norad_id": 34870, "name": "IRIDIUM 33 DEB", "group": "iridium-33-debris", "lat": 30.17769268113889, "lon": -46.130407544289184, "alt_km": 647.040704261035, "timestamp": "2025-12-17T21:39:46.075175+00:00", "meta": {"OBJECT_NAME": "IRIDIUM 33 DEB", "OBJECT_ID": "1997-051MQ", "EPOCH": "2025-12-17T15:48:12.189024", "MEAN_MOTION": 14.76525212, "ECCENTRICITY": 0.00169592, "INCLINATION": 86.3102, "RA_OF_ASC_NODE": 311.8309, "ARG_OF_PERICENTER": 164.6796, "MEAN_ANOMALY": 8.9227, "EPHEMERIS_TYPE": 0, "CLASSIFICATION_TYPE": "U", "NORAD_CAT_ID": 34870, "ELEMENT_SET_NO": 999, "REV_AT_EPOCH": 88983, "BSTAR": 0.0011120343, "MEAN_MOTION_DOT": 7.793e-05, "MEAN_MOTION_DDOT": 0}, "tle": {"line1": "1 34870U 97051MQ  25351.65847441  .00007793  00000+0  11120-2 0  9991", "line2": "2 34870  86.3102 311.8309 0016959 164.6796   8.9227 14.76525212889837"}}, "geometry": {"type": "Point", "coordinates": [-46.130407544289184, 30.17769268113889]}}, {"type": "Feature", "properties": {"norad_id": 34896, "name": "IRIDIUM 33 DEB", "group": "iridium-33-debris", "lat": 42.3441659461944, "lon": -32.27569483703514, "alt_km": 685.0253031060793, "timestamp": "2025-12-17T21:39:46.075184+00:00", "meta": {"OBJECT_NAME": "IRIDIUM 33 DEB", "OBJECT_ID": "1997-051MY", "EPOCH": "2025-12-16T04:34:33.251232", "MEAN_MOTION": 14.66314014, "ECCENTRICITY": 0.00246953, "INCLINATION": 86.3284, "RA_OF_ASC_NODE": 325.1372, "ARG_OF_PERICENTER": 201.8046, "MEAN_ANOMALY": 169.754, "EPHEMERIS_TYPE": 0, "CLASSIFICATION_TYPE": "U", "NORAD_CAT_ID": 34896, "ELEMENT_SET_NO": 999, "REV_AT_EPOCH": 87670, "BSTAR": 0.00064317524, "MEAN_MOTION_DOT": 3.586e-05, "MEAN_MOTION_DDOT": 0}, "tle": {"line1": "1 34896U 97051MY  25350.19066263  .00003586  00000+0  64318-3 0  9996", "line2": "2 34896  86.3284 325.1372 0024695 201.8046 169.7540 14.66314014876703"}}, "geometry": {"type": "Point", "coordinates": [-32.27569483703514, 42.3441659461944]}}, {"type": "Feature", "properties": {"norad_id": 34926, "name": "IRIDIUM 33 DEB", "group": "iridium-33-debris", "lat": -86.0154436629871, "lon": -70.34666252860481, "alt_km": 665.1021785083994, "timestamp": "2025-12-17T21:39:46.075193+00:00", "meta": {"OBJECT_NAME": "IRIDIUM 33 DEB", "OBJECT_ID": "1997-051NF", "EPOCH": "2025-12-17T00:44:22.710624", "MEAN_MOTION": 14.54615203, "ECCENTRICITY": 0.0074762, "INCLINATION": 86.1322, "RA_OF_ASC_NODE": 6.2844, "ARG_OF_PERICENTER": 277.9288, "MEAN_ANOMALY": 110.6903, "EPHEMERIS_TYPE": 0, "CLASSIFICATION_TYPE": "U", "NORAD_CAT_ID": 34926, "ELEMENT_SET_NO": 999, "REV_AT_EPOCH": 86519, "BSTAR": 0.004236712, "MEAN_MOTION_DOT": 0.00018832, "MEAN_MOTION_DDOT": 0}, "tle": {"line1": "1 34926U 97051NF  25351.03081841  .00018832  00000+0  42367-2 0  9992", "line2": "2 34926  86.1322   6.2844 0074762 277.9288 110.6903 14.54615203865191"}}, "geometry": {"type": "Point", "coordinates": [-70.34666252860481, -86.0154436629871]}}, {"type": "Feature", "properties": {"norad_id": 34985, "name": "IRIDIUM 33 DEB", "group": "iridium-33-debris", "lat": 16.46377303924317, "lon": -126.39747845744316, "alt_km": 740.7135983090957, "timestamp": "2025-12-17T21:39:46.075203+00:00", "meta": {"OBJECT_NAME": "IRIDIUM 33 DEB", "OBJECT_ID": "1997-051NR", "EPOCH": "2025-12-17T11:00:14.118336", "MEAN_MOTION": 14.42030058, "ECCENTRICITY": 0.00212319, "INCLINATION": 86.3699, "RA_OF_ASC_NODE": 54.8669, "ARG_OF_PERICENTER": 203.8854, "MEAN_ANOMALY": 175.561, "EPHEMERIS_TYPE": 0, "CLASSIFICATION_TYPE": "U", "NORAD_CAT_ID": 34985, "ELEMENT_SET_NO": 999, "REV_AT_EPOCH": 87243, "BSTAR": 0.00049637733, "MEAN_MOTION_DOT": 1.652e-05, "MEAN_MOTION_DDOT": 0}, "tle": {"line1": "1 34985U 97051NR  25351.45849674  .00001652  00000+0  49638-3 0  9990", "line2": "2 34985  86.3699  54.8669 0021231 203.8854 175.5610 14.42030058872435"}}, "geometry": {"type": "Point", "coordinates": [-126.39747845744316, 16.46377303924317]}}, {"type": "Feature", "properties": {"norad_id": 35051, "name": "IRIDIUM 33 DEB", "group": "iridium-33-debris", "lat": -20.176013389058177, "lon": -172.03437372111108, "alt_km": 742.8541823879004, "timestamp": "2025-12-17T21:39:46.075223+00:00", "meta": {"OBJECT_NAME": "IRIDIUM 33 DEB", "OBJECT_ID": "1997-051NX", "EPOCH": "2025-12-17T07:28:14.191104", "MEAN_MOTION": 14.47618427, "ECCENTRICITY": 0.00105426, "INCLINATION": 86.3241, "RA_OF_ASC_NODE": 6.8697, "ARG_OF_PERICENTER": 78.4974, "MEAN_ANOMALY": 281.7412, "EPHEMERIS_TYPE": 0, "CLASSIFICATION_TYPE": "U", "NORAD_CAT_ID": 35051, "ELEMENT_SET_NO": 999, "REV_AT_EPOCH": 87062, "BSTAR": 0.00048726324, "MEAN_MOTION_DOT": 1.815e-05, "MEAN_MOTION_DDOT": 0}, "tle": {"line1": "1 35051U 97051NX  25351.31127536  .00001815  00000+0  48726-3 0  9994", "line2": "2 35051  86.3241   6.8697 0010542  78.4974 281.7412 14.47618427870629"}}, "geometry": {"type": "Point", "coordinates": [-172.03437372111108, -20.176013389058177]}}, {"type": "Feature", "properties": {"norad_id": 35052, "name": "IRIDIUM 33 DEB", "group": "iridium-33-debris", "lat": -0.26329745474615074, "lon": -161.72035822648814, "alt_km": 769.798095817031, "timestamp": "2025-12-17T21:39:46.075232+00:00", "meta": {"OBJECT_NAME": "IRIDIUM 33 DEB", "OBJECT_ID": "1997-051NY", "EPOCH": "2025-12-17T12:28:55.141824", "MEAN_MOTION": 14.38497693, "ECCENTRICITY": 0.00135167, "INCLINATION": 86.3305, "RA_OF_ASC_NODE": 18.4267, "ARG_OF_PERICENTER": 71.7027, "MEAN_ANOMALY": 288.5641, "EPHEMERIS_TYPE": 0, "CLASSIFICATION_TYPE": "U", "NORAD_CAT_ID": 35052, "ELEMENT_SET_NO": 999, "REV_AT_EPOCH": 87344, "BSTAR": 0.00015333299, "MEAN_MOTION_DOT": 4.89e-06, "MEAN_MOTION_DDOT": 0}, "tle": {"line1": "1 35052U 97051NY  25351.52008266  .00000489  00000+0  15333-3 0  9990", "line2": "2 35052  86.3305  18.4267 0013516  71.7027 288.5641 14.38497693873444"}}, "geometry": {"type": "Point", "coordinates": [-161.72035822648814, -0.26329745474615074]}}, {"type": "Feature", "properties": {"norad_id": 35080, "name": "IRIDIUM 33 DEB", "group": "iridium-33-debris", "lat": 15.8108131353326, "lon": -131.16831085435652, "alt_km": 567.6723537058115, "timestamp": "2025-12-17T21:39:46.075242+00:00", "meta": {"OBJECT_NAME": "IRIDIUM 33 DEB", "OBJECT_ID": "1997-051PF", "EPOCH": "2025-12-17T03:09:28.876608", "MEAN_MOTION": 14.86585825, "ECCENTRICITY": 0.00595754, "INCLINATION": 86.2077, "RA_OF_ASC_NODE": 50.2767, "ARG_OF_PERICENTER": 164.5881, "MEAN_ANOMALY": 195.7176, "EPHEMERIS_TYPE": 0, "CLASSIFICATION_TYPE": "U", "NORAD_CAT_ID": 35080, "ELEMENT_SET_NO": 999, "REV_AT_EPOCH": 69753, "BSTAR": 0.0049196635, "MEAN_MOTION_DOT": 0.00045285, "MEAN_MOTION_DDOT": 0}, "tle": {"line1": "1 35080U 97051PF  25351.13158422  .00045285  00000+0  49197-2 0  9995", "line2": "2 35080  86.2077  50.2767 0059575 164.5881 195.7176 14.86585825697537"}}, "geometry": {"type": "Point", "coordinates": [-131.16831085435652, 15.8108131353326]}}, {"type": "Feature", "properties": {"norad_id": 35297, "name": "IRIDIUM 33 DEB", "group": "iridium-33-debris", "lat": -31.04679132345238, "lon": -117.2634552528008, "alt_km": 746.6585408486617, "timestamp": "2025-12-17T21:39:46.075252+00:00", "meta": {"OBJECT_NAME": "IRIDIUM 33 DEB", "OBJECT_ID": "1997-051PM", "EPOCH": "2025-12-16T11:27:21.167712", "MEAN_MOTION": 14.45174956, "ECCENTRICITY": 0.00178431, "INCLINATION": 86.3863, "RA_OF_ASC_NODE": 61.1645, "ARG_OF_PERICENTER": 129.6186, "MEAN_ANOMALY": 230.6595, "EPHEMERIS_TYPE": 0, "CLASSIFICATION_TYPE": "U", "NORAD_CAT_ID": 35297, "ELEMENT_SET_NO": 999, "REV_AT_EPOCH": 70480, "BSTAR": 0.00045011402, "MEAN_MOTION_DOT": 1.598e-05, "MEAN_MOTION_DDOT": 0}, "tle": {"line1": "1 35297U 97051PM  25350.47732833  .00001598  00000+0  45011-3 0  9996", "line2": "2 35297  86.3863  61.1645 0017843 129.6186 230.6595 14.45174956704806"}}, "geometry": {"type": "Point", "coordinates": [-117.2634552528008, -31.04679132345238]}}, {"type": "Feature", "properties": {"norad_id": 35299, "name": "IRIDIUM 33 DEB", "group": "iridium-33-debris", "lat": 63.393139813193656, "lon": 38.38479682408985, "alt_km": 710.5266030238554, "timestamp": "2025-12-17T21:39:46.075261+00:00", "meta": {"OBJECT_NAME": "IRIDIUM 33 DEB", "OBJECT_ID": "1997-051PP", "EPOCH": "2025-12-17T03:17:33.195264", "MEAN_MOTION": 14.40883464, "ECCENTRICITY": 0.00589054, "INCLINATION": 86.2885, "RA_OF_ASC_NODE": 31.2723, "ARG_OF_PERICENTER": 88.3983, "MEAN_ANOMALY": 327.6495, "EPHEMERIS_TYPE": 0, "CLASSIFICATION_TYPE": "U", "NORAD_CAT_ID": 35299, "ELEMENT_SET_NO": 999, "REV_AT_EPOCH": 86394, "BSTAR": 0.00061427039, "MEAN_MOTION_DOT": 2.03e-05, "MEAN_MOTION_DDOT": 0}, "tle": {"line1": "1 35299U 97051PP  25351.13718976  .00002030  00000+0  61427-3 0  9995", "line2": "2 35299  86.2885  31.2723 0058905  88.3983 327.6495 14.40883464863949"}}, "geometry": {"type": "Point", "coordinates": [38.38479682408985, 63.393139813193656]}}]}